start=new Date('2023-02-22T00:00:00.000Z').valueOf();
sats=[{"COUNTRY_CODE":"US","MEAN_ELEMENT_THEORY":"SGP4","EPHEMERIS_TYPE":"0","RA_OF_ASC_NODE":"320.8703","EPOCH":"2023-02-21T17:42:43.513632","INCLINATION":"53.2171","OBJECT_TYPE":"PAYLOAD","NORAD_CAT_ID":"51866","REV_AT_EPOCH":"5524","MEAN_MOTION_DDOT":"0.0000000000000","LAUNCH_DATE":"2022-03-03","ELEMENT_SET_NO":"999","CENTER_NAME":"EARTH","SITE":"AFETR","TLE_LINE1":"1 51866U 22022Q   23052.73800363  .00001777  00000-0  12971-3 0  9991","GP_ID":"226332247","MEAN_MOTION_DOT":"0.00001777","TIME_SYSTEM":"UTC","REF_FRAME":"TEME","PERIAPSIS":"538.918","APOAPSIS":"540.534","DECAY_DATE":null,"PERIOD":"95.437","RCS_SIZE":"LARGE","TLE_LINE2":"2 51866  53.2171 320.8703 0001168  69.7587 290.3530 15.08846335 55249","MEAN_MOTION":"15.08846335","ARG_OF_PERICENTER":"69.7587","FILE":"3821329","MEAN_ANOMALY":"290.3530","BSTAR":"0.00012971000000","OBJECT_NAME":"STARLINK-3553","SEMIMAJOR_AXIS":"6917.861","CLASSIFICATION_TYPE":"U","OBJECT_ID":"2022-022Q","ECCENTRICITY":"0.00011680"},{"FILE":"3821329","MEAN_ANOMALY":"305.1343","SEMIMAJOR_AXIS":"6917.862","BSTAR":"0.00104950000000","OBJECT_NAME":"STARLINK-3590","CLASSIFICATION_TYPE":"U","OBJECT_ID":"2022-022R","ECCENTRICITY":"0.00006230","TLE_LINE1":"1 51867U 22022R   23052.78952094  .00016457  00000-0  10495-2 0  9995","MEAN_MOTION_DOT":"0.00016457","GP_ID":"226332497","TIME_SYSTEM":"UTC","DECAY_DATE":null,"APOAPSIS":"540.158","PERIAPSIS":"539.296","REF_FRAME":"TEME","PERIOD":"95.437","RCS_SIZE":"MEDIUM","TLE_LINE2":"2 51867  53.2162 320.6331 0000623  54.9707 305.1343 15.08846067 55250","ARG_OF_PERICENTER":"54.9707","MEAN_MOTION":"15.08846067","OBJECT_TYPE":"PAYLOAD","NORAD_CAT_ID":"51867","REV_AT_EPOCH":"5525","MEAN_MOTION_DDOT":"0.0000000000000","ELEMENT_SET_NO":"999","LAUNCH_DATE":"2022-03-03","CENTER_NAME":"EARTH","SITE":"AFETR","COUNTRY_CODE":"US","MEAN_ELEMENT_THEORY":"SGP4","EPHEMERIS_TYPE":"0","RA_OF_ASC_NODE":"320.6331","EPOCH":"2023-02-21T18:56:54.609216","INCLINATION":"53.2162"},{"MEAN_MOTION":"15.08854559","ARG_OF_PERICENTER":"77.9822","TLE_LINE2":"2 51868  53.2169 320.9019 0001489  77.9822 282.1337 15.08854559 55249","RCS_SIZE":"LARGE","PERIOD":"95.437","APOAPSIS":"540.731","PERIAPSIS":"538.671","REF_FRAME":"TEME","DECAY_DATE":null,"TIME_SYSTEM":"UTC","GP_ID":"226333249","MEAN_MOTION_DOT":"0.00011424","TLE_LINE1":"1 51868U 22022S   23052.73064276  .00011424  00000-0  73438-3 0  9993","ECCENTRICITY":"0.00014890","OBJECT_ID":"2022-022S","CLASSIFICATION_TYPE":"U","BSTAR":"0.00073438000000","OBJECT_NAME":"STARLINK-3578","SEMIMAJOR_AXIS":"6917.836","FILE":"3821329","MEAN_ANOMALY":"282.1337","INCLINATION":"53.2169","EPOCH":"2023-02-21T17:32:07.534464","RA_OF_ASC_NODE":"320.9019","EPHEMERIS_TYPE":"0","MEAN_ELEMENT_THEORY":"SGP4","COUNTRY_CODE":"US","SITE":"AFETR","CENTER_NAME":"EARTH","LAUNCH_DATE":"2022-03-03","ELEMENT_SET_NO":"999","MEAN_MOTION_DDOT":"0.0000000000000","REV_AT_EPOCH":"5524","NORAD_CAT_ID":"51868","OBJECT_TYPE":"PAYLOAD"},{"RCS_SIZE":"LARGE","PERIOD":"95.437","ARG_OF_PERICENTER":"118.9765","MEAN_MOTION":"15.08854676","TLE_LINE2":"2 51869  53.2146 320.9811 0001419 118.9765 241.1369 15.08854676 55240","MEAN_MOTION_DOT":"0.00021414","GP_ID":"226333000","TLE_LINE1":"1 51869U 22022T   23052.71224166  .00021414  00000-0  13589-2 0  9998","DECAY_DATE":null,"PERIAPSIS":"538.719","REF_FRAME":"TEME","APOAPSIS":"540.682","TIME_SYSTEM":"UTC","ECCENTRICITY":"0.00014190","OBJECT_ID":"2022-022T","SEMIMAJOR_AXIS":"6917.836","BSTAR":"0.00135890000000","OBJECT_NAME":"STARLINK-3588","FILE":"3821329","MEAN_ANOMALY":"241.1369","CLASSIFICATION_TYPE":"U","EPOCH":"2023-02-21T17:05:37.679424","RA_OF_ASC_NODE":"320.9811","INCLINATION":"53.2146","COUNTRY_CODE":"US","EPHEMERIS_TYPE":"0","MEAN_ELEMENT_THEORY":"SGP4","ELEMENT_SET_NO":"999","LAUNCH_DATE":"2022-03-03","SITE":"AFETR","CENTER_NAME":"EARTH","NORAD_CAT_ID":"51869","OBJECT_TYPE":"PAYLOAD","MEAN_MOTION_DDOT":"0.0000000000000","REV_AT_EPOCH":"5524"},{"REV_AT_EPOCH":"5525","MEAN_MOTION_DDOT":"0.0000000000000","OBJECT_TYPE":"PAYLOAD","NORAD_CAT_ID":"51870","CENTER_NAME":"EARTH","SITE":"AFETR","ELEMENT_SET_NO":"999","LAUNCH_DATE":"2022-03-03","MEAN_ELEMENT_THEORY":"SGP4","EPHEMERIS_TYPE":"0","COUNTRY_CODE":"US","INCLINATION":"53.2155","RA_OF_ASC_NODE":"322.1359","EPOCH":"2023-02-21T10:54:41.254560","CLASSIFICATION_TYPE":"U","MEAN_ANOMALY":"275.4945","FILE":"3819803","SEMIMAJOR_AXIS":"6917.858","BSTAR":"0.00046400000000","OBJECT_NAME":"STARLINK-3591","OBJECT_ID":"2022-022U","ECCENTRICITY":"0.00015770","TIME_SYSTEM":"UTC","DECAY_DATE":null,"APOAPSIS":"540.814","PERIAPSIS":"538.632","REF_FRAME":"TEME","TLE_LINE1":"1 51870U 22022U   23052.45464415  .00007106  00000-0  46400-3 0  9995","MEAN_MOTION_DOT":"0.00007106","GP_ID":"226275328","TLE_LINE2":"2 51870  53.2155 322.1359 0001577  84.6227 275.4945 15.08847351 55253","ARG_OF_PERICENTER":"84.6227","MEAN_MOTION":"15.08847351","PERIOD":"95.437","RCS_SIZE":"LARGE"},{"BSTAR":"0.00044501000000","OBJECT_NAME":"STARLINK-3567","SEMIMAJOR_AXIS":"6917.857","FILE":"3819803","MEAN_ANOMALY":"292.0402","CLASSIFICATION_TYPE":"U","ECCENTRICITY":"0.00022010","OBJECT_ID":"2022-022V","GP_ID":"226276080","MEAN_MOTION_DOT":"0.00006803","TLE_LINE1":"1 51871U 22022V   23052.44360538  .00006803  00000-0  44501-3 0  9999","APOAPSIS":"541.245","PERIAPSIS":"538.200","REF_FRAME":"TEME","DECAY_DATE":null,"TIME_SYSTEM":"UTC","RCS_SIZE":"LARGE","PERIOD":"95.437","MEAN_MOTION":"15.08847569","ARG_OF_PERICENTER":"68.0824","TLE_LINE2":"2 51871  53.2157 322.1919 0002201  68.0824 292.0402 15.08847569 55313","NORAD_CAT_ID":"51871","OBJECT_TYPE":"PAYLOAD","MEAN_MOTION_DDOT":"0.0000000000000","REV_AT_EPOCH":"5531","LAUNCH_DATE":"2022-03-03","ELEMENT_SET_NO":"999","SITE":"AFETR","CENTER_NAME":"EARTH","COUNTRY_CODE":"US","EPHEMERIS_TYPE":"0","MEAN_ELEMENT_THEORY":"SGP4","EPOCH":"2023-02-21T10:38:47.504832","RA_OF_ASC_NODE":"322.1919","INCLINATION":"53.2157"},{"INCLINATION":"53.2149","EPOCH":"2023-02-21T17:01:37.604928","RA_OF_ASC_NODE":"320.9329","EPHEMERIS_TYPE":"0","MEAN_ELEMENT_THEORY":"SGP4","COUNTRY_CODE":"US","SITE":"AFETR","CENTER_NAME":"EARTH","LAUNCH_DATE":"2022-03-03","ELEMENT_SET_NO":"999","MEAN_MOTION_DDOT":"0.0000000000000","REV_AT_EPOCH":"5524","NORAD_CAT_ID":"51872","OBJECT_TYPE":"PAYLOAD","MEAN_MOTION":"15.10188747","ARG_OF_PERICENTER":"117.0057","TLE_LINE2":"2 51872  53.2149 320.9329 0001198 117.0057 243.1058 15.10188747 55248","RCS_SIZE":"LARGE","PERIOD":"95.352","PERIAPSIS":"534.798","REF_FRAME":"TEME","APOAPSIS":"536.454","DECAY_DATE":null,"TIME_SYSTEM":"UTC","GP_ID":"226332750","MEAN_MOTION_DOT":"0.00039583","TLE_LINE1":"1 51872U 22022W   23052.70946302  .00039583  00000-0  24009-2 0  9999","ECCENTRICITY":"0.00011980","OBJECT_ID":"2022-022W","CLASSIFICATION_TYPE":"U","BSTAR":"0.00240090000000","OBJECT_NAME":"STARLINK-3554","SEMIMAJOR_AXIS":"6913.761","MEAN_ANOMALY":"243.1058","FILE":"3821329"},{"INCLINATION":"53.2150","RA_OF_ASC_NODE":"323.4301","EPOCH":"2023-02-21T04:01:20.821440","MEAN_ELEMENT_THEORY":"SGP4","EPHEMERIS_TYPE":"0","COUNTRY_CODE":"US","CENTER_NAME":"EARTH","SITE":"AFETR","ELEMENT_SET_NO":"999","LAUNCH_DATE":"2022-03-03","REV_AT_EPOCH":"5516","MEAN_MOTION_DDOT":"0.0000000000000","OBJECT_TYPE":"PAYLOAD","NORAD_CAT_ID":"51873","TLE_LINE2":"2 51873  53.2150 323.4301 0001099  99.0018 261.1099 15.08855266 55165","ARG_OF_PERICENTER":"99.0018","MEAN_MOTION":"15.08855266","PERIOD":"95.437","RCS_SIZE":"LARGE","TIME_SYSTEM":"UTC","DECAY_DATE":null,"REF_FRAME":"TEME","PERIAPSIS":"538.938","APOAPSIS":"540.459","TLE_LINE1":"1 51873U 22022X   23052.16760210 -.00000638  00000-0 -22022-4 0  9998","MEAN_MOTION_DOT":"-0.00000638","GP_ID":"226275079","OBJECT_ID":"2022-022X","ECCENTRICITY":"0.00010990","CLASSIFICATION_TYPE":"U","MEAN_ANOMALY":"261.1099","FILE":"3819803","SEMIMAJOR_AXIS":"6917.834","BSTAR":"-0.00002202200000","OBJECT_NAME":"STARLINK-3582"},{"INCLINATION":"53.2160","EPOCH":"2023-02-21T21:41:11.331168","RA_OF_ASC_NODE":"320.1333","EPHEMERIS_TYPE":"0","MEAN_ELEMENT_THEORY":"SGP4","COUNTRY_CODE":"US","SITE":"AFETR","CENTER_NAME":"EARTH","ELEMENT_SET_NO":"999","LAUNCH_DATE":"2022-03-03","MEAN_MOTION_DDOT":"0.0000000000000","REV_AT_EPOCH":"5526","NORAD_CAT_ID":"51874","OBJECT_TYPE":"PAYLOAD","ARG_OF_PERICENTER":"114.5692","MEAN_MOTION":"15.08842358","TLE_LINE2":"2 51874  53.2160 320.1333 0001713 114.5692 245.5479 15.08842358 55267","RCS_SIZE":"LARGE","PERIOD":"95.437","DECAY_DATE":null,"REF_FRAME":"TEME","PERIAPSIS":"538.553","APOAPSIS":"540.923","TIME_SYSTEM":"UTC","MEAN_MOTION_DOT":"0.00002843","GP_ID":"226332248","TLE_LINE1":"1 51874U 22022Y   23052.90360337  .00002843  00000-0  19661-3 0  9999","ECCENTRICITY":"0.00017130","OBJECT_ID":"2022-022Y","CLASSIFICATION_TYPE":"U","SEMIMAJOR_AXIS":"6917.873","BSTAR":"0.00019661000000","OBJECT_NAME":"STARLINK-3574","MEAN_ANOMALY":"245.5479","FILE":"3821329"},{"ELEMENT_SET_NO":"999","LAUNCH_DATE":"2022-03-03","SITE":"AFETR","CENTER_NAME":"EARTH","NORAD_CAT_ID":"51875","OBJECT_TYPE":"PAYLOAD","MEAN_MOTION_DDOT":"0.0000000000000","REV_AT_EPOCH":"5527","EPOCH":"2023-02-21T21:21:22.199328","RA_OF_ASC_NODE":"320.1865","INCLINATION":"53.2154","COUNTRY_CODE":"US","EPHEMERIS_TYPE":"0","MEAN_ELEMENT_THEORY":"SGP4","ECCENTRICITY":"0.00015140","OBJECT_ID":"2022-022Z","SEMIMAJOR_AXIS":"6917.837","BSTAR":"0.00012967000000","OBJECT_NAME":"STARLINK-3585","FILE":"3821329","MEAN_ANOMALY":"265.2568","CLASSIFICATION_TYPE":"U","RCS_SIZE":"LARGE","PERIOD":"95.437","ARG_OF_PERICENTER":"94.8597","MEAN_MOTION":"15.08854206","TLE_LINE2":"2 51875  53.2154 320.1865 0001514  94.8597 265.2568 15.08854206 55278","MEAN_MOTION_DOT":"0.00001777","GP_ID":"226332498","TLE_LINE1":"1 51875U 22022Z   23052.88984027  .00001777  00000-0  12967-3 0  9992","DECAY_DATE":null,"PERIAPSIS":"538.655","REF_FRAME":"TEME","APOAPSIS":"540.749","TIME_SYSTEM":"UTC"}];
